CCSDS_OMM_VERS = 2.0
CREATION_DATE  = 
ORIGINATOR     = 

OBJECT_NAME    = SL-16 R/B
OBJECT_ID      = 1992-093B
CENTER_NAME    = EARTH
REF_FRAME      = TEME
TIME_SYSTEM    = UTC
MEAN_ELEMENT_THEORY = SGP/SGP4

EPOCH          = 2025-10-27T22:46:38.989632
MEAN_MOTION    = 14.15418578
ECCENTRICITY   = .00036622
INCLINATION    = 71.0202
RA_OF_ASC_NODE = 282.9178
ARG_OF_PERICENTER = 185.3840
MEAN_ANOMALY   = 174.7244

EPHEMERIS_TYPE = 0
CLASSIFICATION_TYPE = U
NORAD_CAT_ID   = 22285
ELEMENT_SET_NO = 999
REV_AT_EPOCH   = 69437
BSTAR          = -.73692873E-4
MEAN_MOTION_DOT = -.191E-5
MEAN_MOTION_DDOT = 0

CCSDS_OMM_VERS = 2.0
CREATION_DATE  = 
ORIGINATOR     = 

OBJECT_NAME    = COSMOS 2228
OBJECT_ID      = 1992-094A
CENTER_NAME    = EARTH
REF_FRAME      = TEME
TIME_SYSTEM    = UTC
MEAN_ELEMENT_THEORY = SGP/SGP4

EPOCH          = 2025-10-27T21:22:22.817568
MEAN_MOTION    = 14.96425726
ECCENTRICITY   = .00188568
INCLINATION    = 82.5206
RA_OF_ASC_NODE = 4.3928
ARG_OF_PERICENTER = 33.4758
MEAN_ANOMALY   = 326.7651

EPHEMERIS_TYPE = 0
CLASSIFICATION_TYPE = U
NORAD_CAT_ID   = 22286
ELEMENT_SET_NO = 999
REV_AT_EPOCH   = 75619
BSTAR          = .23070245E-3
MEAN_MOTION_DOT = .265E-4
MEAN_MOTION_DDOT = 0

CCSDS_OMM_VERS = 2.0
CREATION_DATE  = 
ORIGINATOR     = 

OBJECT_NAME    = SL-16 R/B
OBJECT_ID      = 1993-016B
CENTER_NAME    = EARTH
REF_FRAME      = TEME
TIME_SYSTEM    = UTC
MEAN_ELEMENT_THEORY = SGP/SGP4

EPOCH          = 2025-10-27T21:44:03.848640
MEAN_MOTION    = 14.15280146
ECCENTRICITY   = .00098437
INCLINATION    = 71.0058
RA_OF_ASC_NODE = 134.0662
ARG_OF_PERICENTER = 179.0906
MEAN_ANOMALY   = 181.0237

EPHEMERIS_TYPE = 0
CLASSIFICATION_TYPE = U
NORAD_CAT_ID   = 22566
ELEMENT_SET_NO = 999
REV_AT_EPOCH   = 68338
BSTAR          = -.32096915E-4
MEAN_MOTION_DOT = -.11E-5
MEAN_MOTION_DDOT = 0

CCSDS_OMM_VERS = 2.0
CREATION_DATE  = 
ORIGINATOR     = 

OBJECT_NAME    = COSMOS 2242
OBJECT_ID      = 1993-024A
CENTER_NAME    = EARTH
REF_FRAME      = TEME
TIME_SYSTEM    = UTC
MEAN_ELEMENT_THEORY = SGP/SGP4

EPOCH          = 2025-10-27T16:24:23.611968
MEAN_MOTION    = 14.95822942
ECCENTRICITY   = .0017218
INCLINATION    = 82.5218
RA_OF_ASC_NODE = 33.8468
ARG_OF_PERICENTER = 36.9276
MEAN_ANOMALY   = 323.3127

EPHEMERIS_TYPE = 0
CLASSIFICATION_TYPE = U
NORAD_CAT_ID   = 22626
ELEMENT_SET_NO = 999
REV_AT_EPOCH   = 76050
BSTAR          = .27993723E-3
MEAN_MOTION_DOT = .3159E-4
MEAN_MOTION_DDOT = 0

CCSDS_OMM_VERS = 2.0
CREATION_DATE  = 
ORIGINATOR     = 

OBJECT_NAME    = SL-16 R/B
OBJECT_ID      = 1993-059B
CENTER_NAME    = EARTH
REF_FRAME      = TEME
TIME_SYSTEM    = UTC
MEAN_ELEMENT_THEORY = SGP/SGP4

EPOCH          = 2025-10-27T22:10:50.752128
MEAN_MOTION    = 14.17202493
ECCENTRICITY   = .00153183
INCLINATION    = 70.9892
RA_OF_ASC_NODE = 291.0979
ARG_OF_PERICENTER = 46.8525
MEAN_ANOMALY   = 313.3877

EPHEMERIS_TYPE = 0
CLASSIFICATION_TYPE = U
NORAD_CAT_ID   = 22803
ELEMENT_SET_NO = 999
REV_AT_EPOCH   = 66072
BSTAR          = .78941718E-4
MEAN_MOTION_DOT = .112E-5
MEAN_MOTION_DDOT = 0

CCSDS_OMM_VERS = 2.0
CREATION_DATE  = 
ORIGINATOR     = 

OBJECT_NAME    = ARIANE 40 R/B
OBJECT_ID      = 1993-061H
CENTER_NAME    = EARTH
REF_FRAME      = TEME
TIME_SYSTEM    = UTC
MEAN_ELEMENT_THEORY = SGP/SGP4

EPOCH          = 2025-10-27T16:00:43.780896
MEAN_MOTION    = 14.32758333
ECCENTRICITY   = .00099061
INCLINATION    = 98.5129
RA_OF_ASC_NODE = 7.0236
ARG_OF_PERICENTER = 322.6306
MEAN_ANOMALY   = 37.4189

EPHEMERIS_TYPE = 0
CLASSIFICATION_TYPE = U
NORAD_CAT_ID   = 22830
ELEMENT_SET_NO = 999
REV_AT_EPOCH   = 67505
BSTAR          = .14663994E-3
MEAN_MOTION_DOT = .356E-5
MEAN_MOTION_DDOT = 0

CCSDS_OMM_VERS = 2.0
CREATION_DATE  = 
ORIGINATOR     = 

OBJECT_NAME    = COSMOS 2278
OBJECT_ID      = 1994-023A
CENTER_NAME    = EARTH
REF_FRAME      = TEME
TIME_SYSTEM    = UTC
MEAN_ELEMENT_THEORY = SGP/SGP4

EPOCH          = 2025-10-27T22:01:52.316832
MEAN_MOTION    = 14.14331178
ECCENTRICITY   = .00107714
INCLINATION    = 71.0511
RA_OF_ASC_NODE = 92.8728
ARG_OF_PERICENTER = 239.5423
MEAN_ANOMALY   = 120.4636

EPHEMERIS_TYPE = 0
CLASSIFICATION_TYPE = U
NORAD_CAT_ID   = 23087
ELEMENT_SET_NO = 999
REV_AT_EPOCH   = 62603
BSTAR          = -.43362534E-4
MEAN_MOTION_DOT = -.13E-5
MEAN_MOTION_DDOT = 0

CCSDS_OMM_VERS = 2.0
CREATION_DATE  = 
ORIGINATOR     = 

OBJECT_NAME    = SL-16 R/B
OBJECT_ID      = 1994-023B
CENTER_NAME    = EARTH
REF_FRAME      = TEME
TIME_SYSTEM    = UTC
MEAN_ELEMENT_THEORY = SGP/SGP4

EPOCH          = 2025-10-27T21:12:50.395104
MEAN_MOTION    = 14.14989834
ECCENTRICITY   = .00024551
INCLINATION    = 71.0017
RA_OF_ASC_NODE = 349.7875
ARG_OF_PERICENTER = 182.8848
MEAN_ANOMALY   = 177.2261

EPHEMERIS_TYPE = 0
CLASSIFICATION_TYPE = U
NORAD_CAT_ID   = 23088
ELEMENT_SET_NO = 999
REV_AT_EPOCH   = 62730
BSTAR          = .16618856E-3
MEAN_MOTION_DOT = .274E-5
MEAN_MOTION_DDOT = 0

CCSDS_OMM_VERS = 2.0
CREATION_DATE  = 
ORIGINATOR     = 

OBJECT_NAME    = SL-16 R/B
OBJECT_ID      = 1994-074B
CENTER_NAME    = EARTH
REF_FRAME      = TEME
TIME_SYSTEM    = UTC
MEAN_ELEMENT_THEORY = SGP/SGP4

EPOCH          = 2025-10-27T13:27:34.168032
MEAN_MOTION    = 14.79210003
ECCENTRICITY   = .00053126
INCLINATION    = 97.7265
RA_OF_ASC_NODE = 331.6864
ARG_OF_PERICENTER = 301.9927
MEAN_ANOMALY   = 218.1959

EPHEMERIS_TYPE = 0
CLASSIFICATION_TYPE = U
NORAD_CAT_ID   = 23343
ELEMENT_SET_NO = 999
REV_AT_EPOCH   = 66756
BSTAR          = .10226309E-3
MEAN_MOTION_DOT = .71E-5
MEAN_MOTION_DDOT = 0

CCSDS_OMM_VERS = 2.0
CREATION_DATE  = 
ORIGINATOR     = 

OBJECT_NAME    = SL-16 R/B
OBJECT_ID      = 1994-077B
CENTER_NAME    = EARTH
REF_FRAME      = TEME
TIME_SYSTEM    = UTC
MEAN_ELEMENT_THEORY = SGP/SGP4

EPOCH          = 2025-10-27T22:00:53.712576
MEAN_MOTION    = 14.15539086
ECCENTRICITY   = .00034256
INCLINATION    = 70.9814
RA_OF_ASC_NODE = 271.8101
ARG_OF_PERICENTER = 320.2203
MEAN_ANOMALY   = 39.8668

EPHEMERIS_TYPE = 0
CLASSIFICATION_TYPE = U
NORAD_CAT_ID   = 23405
ELEMENT_SET_NO = 999
REV_AT_EPOCH   = 59744
BSTAR          = -.64874167E-4
MEAN_MOTION_DOT = -.175E-5
MEAN_MOTION_DDOT = 0

CCSDS_OMM_VERS = 2.0
CREATION_DATE  = 
ORIGINATOR     = 

OBJECT_NAME    = ARIANE 40+ R/B
OBJECT_ID      = 1995-021B
CENTER_NAME    = EARTH
REF_FRAME      = TEME
TIME_SYSTEM    = UTC
MEAN_ELEMENT_THEORY = SGP/SGP4

EPOCH          = 2025-10-27T10:32:55.733280
MEAN_MOTION    = 14.39641042
ECCENTRICITY   = .00069551
INCLINATION    = 98.4701
RA_OF_ASC_NODE = 8.5762
ARG_OF_PERICENTER = 172.1899
MEAN_ANOMALY   = 198.9821

EPHEMERIS_TYPE = 0
CLASSIFICATION_TYPE = U
NORAD_CAT_ID   = 23561
ELEMENT_SET_NO = 999
REV_AT_EPOCH   = 60007
BSTAR          = .16826311E-3
MEAN_MOTION_DOT = .482E-5
MEAN_MOTION_DDOT = 0

CCSDS_OMM_VERS = 2.0
CREATION_DATE  = 
ORIGINATOR     = 

OBJECT_NAME    = SL-16 R/B
OBJECT_ID      = 1995-058B
CENTER_NAME    = EARTH
REF_FRAME      = TEME
TIME_SYSTEM    = UTC
MEAN_ELEMENT_THEORY = SGP/SGP4

EPOCH          = 2025-10-27T20:19:43.854240
MEAN_MOTION    = 14.15468376
ECCENTRICITY   = .00139642
INCLINATION    = 71.0187
RA_OF_ASC_NODE = 99.1520
ARG_OF_PERICENTER = 315.0795
MEAN_ANOMALY   = 44.9198

EPHEMERIS_TYPE = 0
CLASSIFICATION_TYPE = U
NORAD_CAT_ID   = 23705
ELEMENT_SET_NO = 999
REV_AT_EPOCH   = 54905
BSTAR          = .13877316E-3
MEAN_MOTION_DOT = .224E-5
MEAN_MOTION_DDOT = 0

