SL-16 R/B               
1 22285U 92093B   25300.94906238 -.00000191  00000+0 -73693-4 0  9997
2 22285  71.0202 282.9178 0003662 185.3840 174.7244 14.15418578694378
COSMOS 2228             
1 22286U 92094A   25300.89054187  .00002650  00000+0  23070-3 0  9993
2 22286  82.5206   4.3928 0018856  33.4758 326.7651 14.96425726756193
SL-16 R/B               
1 22566U 93016B   25300.90560010 -.00000110  00000+0 -32097-4 0  9999
2 22566  71.0058 134.0662 0009843 179.0906 181.0237 14.15280146683384
COSMOS 2242             
1 22626U 93024A   25300.68360662  .00003159  00000+0  27994-3 0  9994
2 22626  82.5218  33.8468 0017218  36.9276 323.3127 14.95822942760505
SL-16 R/B               
1 22803U 93059B   25300.92419852  .00000112  00000+0  78942-4 0  9998
2 22803  70.9892 291.0979 0015318  46.8525 313.3877 14.17202493660723
ARIANE 40 R/B           
1 22830U 93061H   25300.66717339  .00000356  00000+0  14664-3 0  9993
2 22830  98.5129   7.0236 0009906 322.6306  37.4189 14.32758333675059
COSMOS 2278             
1 23087U 94023A   25300.91796663 -.00000130  00000+0 -43363-4 0  9993
2 23087  71.0511  92.8728 0010771 239.5423 120.4636 14.14331178626039
SL-16 R/B               
1 23088U 94023B   25300.88391661  .00000274  00000+0  16619-3 0  9999
2 23088  71.0017 349.7875 0002455 182.8848 177.2261 14.14989834627302
SL-16 R/B               
1 23343U 94074B   25300.56081213  .00000710  00000+0  10226-3 0  9996
2 23343  97.7265 331.6864 0005312 301.9927 218.1959 14.79210003667568
SL-16 R/B               
1 23405U 94077B   25300.91728834 -.00000175  00000+0 -64874-4 0  9990
2 23405  70.9814 271.8101 0003425 320.2203  39.8668 14.15539086597442
ARIANE 40+ R/B          
1 23561U 95021B   25300.43953395  .00000482  00000+0  16826-3 0  9994
2 23561  98.4701   8.5762 0006955 172.1899 198.9821 14.39641042600073
SL-16 R/B               
1 23705U 95058B   25300.84703535  .00000224  00000+0  13877-3 0  9995
2 23705  71.0187  99.1520 0013964 315.0795  44.9198 14.15468376549055
